"C 1956 R1 (Arend-Roland):Arend-Roland:1956 III:1957h:Great Comet of 1957" "Sol" 
{ 
	Class		"comet" 
	Mesh		"asteroid.cms" 
	Texture	"asteroid.jpg"
	Radius	 1.60					# D = 3.2 km, guess 

	# Outbound elliptical barycentric orbit is used (1957)
	# https://ssd.jpl.nasa.gov/horizons/app.html#/

	OrbitFrame
	{	EclipticJ2000	{ Center "SSB" }	}
	EllipticalOrbit 
	{ 
		Epoch			2436028.500000	# 1957-Jul-09, 00:00
		Period		  22559.617575934633351
		SemiMajorAxis	    798.3835281410535
		Eccentricity	      0.99996125289969054 
		Inclination	    119.9247650472963
		AscendingNode	    216.0308728148151
		ArgOfPericenter	    308.5531356190100
		MeanAnomaly	      0.004002187679796569
	}

	# Actual rotation period is unknown
	# February 2025
	
	RotationPeriod	 6.00
	GeomAlbedo		 0.04
	InfoURL	"https://en.wikipedia.org/wiki/Comet_Donati"
} 

"C 1973 E1 (Kohoutek):Kohoutek:1973 XII:1973f" "Sol" 
{ 
	Class		"comet" 
	Mesh		"asteroid.cms" 
	Texture	"asteroid.jpg"
	Radius	 2.10					# D = 4.2 km

	# Outbound elliptical barycentric orbit is used (2500)
	# https://ssd.jpl.nasa.gov/horizons/app.html#/

	OrbitFrame
	{	EclipticJ2000	{ Center "SSB" }	}
	EllipticalOrbit 
	{ 
		Epoch			2634166.500000	# 2500-Jan-01, 00:00
		Period		  78401.265492968188482
		SemiMajorAxis	   1831.776407481045
		Eccentricity	      0.9999221277468180 
		Inclination	     14.20892450066592
		AscendingNode	    258.3439730167626
		ArgOfPericenter	     37.95842999569324
		MeanAnomaly	      2.416925624045164
	}

	# Actual rotation period is unknown
	# February 2025
	
	RotationPeriod	 6.00
	GeomAlbedo		 0.67
	InfoURL	"https://en.wikipedia.org/wiki/Comet_Kohoutek"
} 

"C 1995 O1 (Hale-Bopp):Hale-Bopp:Great Comet of 1997" "Sol"
{
	Class		"comet"
	Mesh		"asteroid.cms"
	Texture	"asteroid.jpg"
	Radius	 30.00				# D = 30.0 km

	EllipticalOrbit
	{
		Epoch			2459837.500000	# 2022-Sept-15, 00:00
		Period		   2363.530468136978
		SemiMajorAxis	    177.4333839117583
		Eccentricity	      0.9949810027633206 
		Inclination	     89.28759424740302
		AscendingNode	    282.7334213961641
		ArgOfPericenter	    130.4146670659176
		MeanAnomaly	      3.878386339423241
	}

	# Rotation period from Burns (1998)
	# https://web.archive.org/web/20000117122610/http://www.usafa.af.mil/dfp/research/astro/papers/icqpaper.htm

	RotationPeriod	11.47
	GeomAlbedo		 0.07
	InfoURL	"https://en.wikipedia.org/wiki/Comet_Hale-Bopp"
}

"C 1996 B2 (Hyakutake):Hyakutake:Great Comet of 1996" "Sol"
{
	Class		"comet"
	Mesh		"asteroid.cms"
	Texture	"asteroid.jpg"
	Radius	 2.10					# D = 4.2 km

	EllipticalOrbit
	{
		Epoch			2450157.500000	# 1996-Mar-15, 00:00
		Period		  97942.59992726530
		SemiMajorAxis	   2124.755444393889
		Eccentricity	      0.9998916470450123 
		Inclination	    124.9220493922234
		AscendingNode	    188.045131992156
		ArgOfPericenter	    130.1751209780967
		MeanAnomaly	    359.9995230582502
	}

	# Rotation period from Schleicher (1998)
	# https://doi.org/10.1006/icar.1997.5881

	RotationPeriod	 6.23
	GeomAlbedo		 0.04
	InfoURL	"https://en.wikipedia.org/wiki/Comet_Hyakutake"
}

"C 2014 UN271 (Bernardinelli-Bernstein):Bernardinelli-Bernstein" "Sol"
{
	Class		"comet"
	Mesh		"roughsphere.cms"
	Texture	"asteroid.jpg"
	Radius	 68.50				# D = 137 km

	EllipticalOrbit
	{
		Epoch			2458750.500000	# 2019-Sept-24, 00:00
		Period		 300803.0639949109
		SemiMajorAxis	   4489.342112465647
		Eccentricity	      0.9975649080914114 
		Inclination	     95.50034193311355
		AscendingNode	    190.0157567404514
		ArgOfPericenter	    326.4246675873162
		MeanAnomaly	    359.9864173004243
	}

	# Rotation period from Ferrin (2022)
	# http://astronomerstelegram.org/?read=15356

	RotationPeriod	 494.400			# P = 20.6 days
	GeomAlbedo		   0.033
	InfoURL	"https://en.wikipedia.org/wiki/C/2014_UN271_(Bernardinelli-Bernstein)"
}

"C 2020 F3 (NEOWISE):NEOWISE:Great Comet of 2020" "Sol"
{
	Class		"comet"
	Mesh		"asteroid.cms"
	Texture	"asteroid.jpg"
	Radius	 2.50					# D = 5.0 km

	EllipticalOrbit
	{
		Epoch			2459036.500000	# 2020-Jul-06, 00:00
		Period		   6787.091630382272
		SemiMajorAxis	    358.4679565529321
		Eccentricity	      0.9991780262531292 
		Inclination	    128.9375027594809
		AscendingNode	     61.01042818536988
		ArgOfPericenter	     37.2786584481257
		MeanAnomaly	      0.0003370720801246702
	}

	# Rotation period from Drahus (2020)
	# http://astronomerstelegram.org/?read=13945

	RotationPeriod	 7.58
	GeomAlbedo		 0.04
	InfoURL	"https://en.wikipedia.org/wiki/Comet_NEOWISE"
}
 
"C 2022 E3 (ZTF):ZTF" "Sol"
{
	Class		"comet"
	Mesh		"asteroid.cms"
	Texture	"asteroid.jpg"
	Radius	 0.50					# D = 1.0 km

	# Inbound elliptical barycentric orbit is used (2022)
	# https://ssd.jpl.nasa.gov/horizons/app.html#/

	OrbitFrame
	{	EclipticJ2000	{ Center "SSB" }	}
	EllipticalOrbit
	{
		Epoch			2459873.500000	# 2022-Oct-21, 00:00
		Period		  14733.141618661529719
		SemiMajorAxis	    600.9716541841663
		Eccentricity	      0.9981399312831263 
		Inclination	    109.4392225804860
		AscendingNode	    302.6719351300542
		ArgOfPericenter	    145.7486599455753
		MeanAnomaly	    359.9943929771707
	}

	# Rotation period from Manzini (2023)
	# http://astronomerstelegram.org/?read=15909

	RotationPeriod	 8.50
	GeomAlbedo		 0.04
	InfoURL	"https://en.wikipedia.org/wiki/C/2022_E3_(ZTF)"
}

"C 2023 A3 (Tsuchinshan-ATLAS):Tsuchinshan-ATLAS:Great Comet of 2024" "Sol"
{
	Class		"comet"
	Mesh		"asteroid.cms"
	Texture	"asteroid.jpg"
	Radius	 1.60					# D = 3.2 km, dubious

	# Comet is currently on a hyperbolic ejection trajectory
	# since 1900. Inbound barycentric orbit is used (2024)
	# https://ssd.jpl.nasa.gov/horizons/app.html#/

	OrbitFrame
	{	EclipticJ2000	{ Center "SSB" }	}
	EllipticalOrbit
	{
		Epoch			2460570.625000	# 2024-Sept-17, 03:00
		Period		  93847.454727929158253
		SemiMajorAxis	   2065.08886494021
		Eccentricity	      0.9998133246305106 
		Inclination	    138.9767058917233
		AscendingNode	     21.50257662712503
		ArgOfPericenter	    309.3893250633092
		MeanAnomaly	    359.99998857859469
	}

	# Actual rotation period is currently unknown
	# February 2025

	RotationPeriod	 6.00
	GeomAlbedo		 0.04
	InfoURL	"https://en.wikipedia.org/wiki/C/2023_A3_(Tsuchinshan-ATLAS)"
}
